IRIDIUM 171             
1 43929U 19002H   26004.20531253  .00000056  00000+0  12915-4 0  9994
2 43929  86.3953  62.4110 0002417  91.3982 268.7491 14.34217908365452
IRIDIUM 170             
1 43930U 19002J   26004.22705726  .00001205  00000+0  18729-3 0  9991
2 43930  86.6067  62.1087 0002359  88.4110 271.7377 14.72242073375134
IRIDIUM 167             
1 43931U 19002K   26004.19896973  .00000090  00000+0  24960-4 0  9999
2 43931  86.3944  62.1463 0002664  92.7485 267.4016 14.34218232365450
IRIDIUM 181             
1 56726U 23068S   26004.28109075  .00000624  00000+0  17943-3 0  9997
2 56726  86.4530 125.3140 0001761  82.9736 277.1665 14.43312367138796
IRIDIUM 177             
1 56727U 23068T   26004.18587665  .00001755  00000+0  22754-3 0  9994
2 56727  86.1943  46.6660 0002243  90.0730 270.0748 14.80224504142104
IRIDIUM 174             
1 56728U 23068U   26004.21470623  .00001479  00000+0  23065-3 0  9993
2 56728  86.6074  62.2449 0002169  92.0529 268.0936 14.72250468141899
IRIDIUM 178             
1 56729U 23068V   26004.31017857  .00002362  00000+0  30758-3 0  9990
2 56729  86.6538  93.8699 0002523  85.1140 275.0369 14.80206977142128
IRIDIUM 179             
1 56730U 23068W   26004.30481766  .00002379  00000+0  30959-3 0  9996
2 56730  86.6790 102.3653 0002502  93.4134 266.7374 14.80236119142122
